[{"OBJECT_NAME":"STARLINK-30981","OBJECT_ID":"2023-186X","EPOCH":"2026-03-09T01:30:59.940864","MEAN_MOTION":15.27574809,"ECCENTRICITY":0.00014849,"INCLINATION":43.0033,"RA_OF_ASC_NODE":66.9033,"ARG_OF_PERICENTER":266.4652,"MEAN_ANOMALY":93.603,"EPHEMERIS_TYPE":0,"CLASSIFICATION_TYPE":"U","NORAD_CAT_ID":58494,"ELEMENT_SET_NO":999,"REV_AT_EPOCH":12579,"BSTAR":2.7009633e-5,"MEAN_MOTION_DOT":4.81e-6,"MEAN_MOTION_DDOT":0},{"OBJECT_NAME":"TEVEL2-3","OBJECT_ID":"2025-052J","EPOCH":"2026-03-09T15:29:22.754400","MEAN_MOTION":15.30377031,"ECCENTRICITY":0.0004761,"INCLINATION":97.3994,"RA_OF_ASC_NODE":324.7775,"ARG_OF_PERICENTER":105.7353,"MEAN_ANOMALY":254.4413,"EPHEMERIS_TYPE":0,"CLASSIFICATION_TYPE":"U","NORAD_CAT_ID":63218,"ELEMENT_SET_NO":999,"REV_AT_EPOCH":5485,"BSTAR":0.00069446,"MEAN_MOTION_DOT":0.00020365,"MEAN_MOTION_DDOT":0}]
