STARLINK-30981          
1 58494U 23186X   26068.06319376  .00000481  00000+0  27010-4 0  9993
2 58494  43.0033  66.9033 0001484 266.4652  93.6030 15.27574809125793
TEVEL2-3                
1 63218U 25052J   26068.64540225  .00020365  00000+0  69446-3 0  9991
2 63218  97.3994 324.7775 0004761 105.7353 254.4413 15.30377031 54855
